ORBCOMM-X               
1 21576U 91050C   25062.16288117  .00000688  00000+0  21786-3 0  9993
2 21576  98.3553 130.8762 0004500 135.9327 224.2222 14.43117155767044
ORBCOMM FM01            
1 23545U 95017A   25062.14358170  .00008065  00000+0  88475-3 0  9998
2 23545  69.9663 338.2191 0002740 194.4278 165.6798 14.88027561596728
ORBCOMM FM02            
1 23546U 95017B   25062.13343902  .00010101  00000+0  10948-2 0  9998
2 23546  69.9683 357.8889 0003227 171.4953 188.6256 14.88423636596365
ORBCOMM FM08            
1 25112U 97084A   25062.30563020  .00002890  00000+0  85741-3 0  9999
2 25112  45.0127 155.9515 0004107  80.2079 279.9236 14.45211190426223
ORBCOMM FM10            
1 25113U 97084B   25062.75530129  .00002975  00000+0  88481-3 0  9991
2 25113  45.0139 155.9937 0002545  23.0292 337.0673 14.45015392426273
ORBCOMM FM11            
1 25114U 97084C   25062.32692939  .00002511  00000+0  75732-3 0  9994
2 25114  45.0124 158.4906 0003337  28.7287 331.3748 14.44770086426163
ORBCOMM FM12            
1 25115U 97084D   25061.66868165  .00002921  00000+0  87375-3 0  9998
2 25115  45.0133 161.4070 0002437  16.1727 343.9202 14.44782947425869
ORBCOMM FM09            
1 25116U 97084E   25061.69234996  .00002834  00000+0  85066-3 0  9999
2 25116  45.0137 162.1265 0004060   4.6905 355.3983 14.44679078426079
