<?xml version="1.0" encoding="UTF-8"?>
<ndm xmlns:xsi="http://www.w3.org/2001/XMLSchema-instance" xsi:noNamespaceSchemaLocation="https://sanaregistry.org/r/ndmxml_unqualified/ndmxml-2.0.0-master-2.0.xsd">
<omm id="CCSDS_OMM_VERS" version="2.0">
<header><CREATION_DATE/><ORIGINATOR/></header><body><segment><metadata><OBJECT_NAME>ORBCOMM-X</OBJECT_NAME><OBJECT_ID>1991-050C</OBJECT_ID><CENTER_NAME>EARTH</CENTER_NAME><REF_FRAME>TEME</REF_FRAME><TIME_SYSTEM>UTC</TIME_SYSTEM><MEAN_ELEMENT_THEORY>SGP4</MEAN_ELEMENT_THEORY></metadata><data><meanElements><EPOCH>2025-03-03T03:54:32.933088</EPOCH><MEAN_MOTION>14.43117155</MEAN_MOTION><ECCENTRICITY>.00045</ECCENTRICITY><INCLINATION>98.3553</INCLINATION><RA_OF_ASC_NODE>130.8762</RA_OF_ASC_NODE><ARG_OF_PERICENTER>135.9327</ARG_OF_PERICENTER><MEAN_ANOMALY>224.2222</MEAN_ANOMALY></meanElements><tleParameters><EPHEMERIS_TYPE>0</EPHEMERIS_TYPE><CLASSIFICATION_TYPE>U</CLASSIFICATION_TYPE><NORAD_CAT_ID>21576</NORAD_CAT_ID><ELEMENT_SET_NO>999</ELEMENT_SET_NO><REV_AT_EPOCH>76704</REV_AT_EPOCH><BSTAR>.21786E-3</BSTAR><MEAN_MOTION_DOT>.688E-5</MEAN_MOTION_DOT><MEAN_MOTION_DDOT>0</MEAN_MOTION_DDOT></tleParameters></data></segment></body></omm>
<omm id="CCSDS_OMM_VERS" version="2.0">
<header><CREATION_DATE/><ORIGINATOR/></header><body><segment><metadata><OBJECT_NAME>ORBCOMM FM01</OBJECT_NAME><OBJECT_ID>1995-017A</OBJECT_ID><CENTER_NAME>EARTH</CENTER_NAME><REF_FRAME>TEME</REF_FRAME><TIME_SYSTEM>UTC</TIME_SYSTEM><MEAN_ELEMENT_THEORY>SGP4</MEAN_ELEMENT_THEORY></metadata><data><meanElements><EPOCH>2025-03-03T03:26:45.458880</EPOCH><MEAN_MOTION>14.88027561</MEAN_MOTION><ECCENTRICITY>.000274</ECCENTRICITY><INCLINATION>69.9663</INCLINATION><RA_OF_ASC_NODE>338.2191</RA_OF_ASC_NODE><ARG_OF_PERICENTER>194.4278</ARG_OF_PERICENTER><MEAN_ANOMALY>165.6798</MEAN_ANOMALY></meanElements><tleParameters><EPHEMERIS_TYPE>0</EPHEMERIS_TYPE><CLASSIFICATION_TYPE>U</CLASSIFICATION_TYPE><NORAD_CAT_ID>23545</NORAD_CAT_ID><ELEMENT_SET_NO>999</ELEMENT_SET_NO><REV_AT_EPOCH>59672</REV_AT_EPOCH><BSTAR>.88475E-3</BSTAR><MEAN_MOTION_DOT>.8065E-4</MEAN_MOTION_DOT><MEAN_MOTION_DDOT>0</MEAN_MOTION_DDOT></tleParameters></data></segment></body></omm>
<omm id="CCSDS_OMM_VERS" version="2.0">
<header><CREATION_DATE/><ORIGINATOR/></header><body><segment><metadata><OBJECT_NAME>ORBCOMM FM02</OBJECT_NAME><OBJECT_ID>1995-017B</OBJECT_ID><CENTER_NAME>EARTH</CENTER_NAME><REF_FRAME>TEME</REF_FRAME><TIME_SYSTEM>UTC</TIME_SYSTEM><MEAN_ELEMENT_THEORY>SGP4</MEAN_ELEMENT_THEORY></metadata><data><meanElements><EPOCH>2025-03-03T03:12:09.131328</EPOCH><MEAN_MOTION>14.88423636</MEAN_MOTION><ECCENTRICITY>.0003227</ECCENTRICITY><INCLINATION>69.9683</INCLINATION><RA_OF_ASC_NODE>357.8889</RA_OF_ASC_NODE><ARG_OF_PERICENTER>171.4953</ARG_OF_PERICENTER><MEAN_ANOMALY>188.6256</MEAN_ANOMALY></meanElements><tleParameters><EPHEMERIS_TYPE>0</EPHEMERIS_TYPE><CLASSIFICATION_TYPE>U</CLASSIFICATION_TYPE><NORAD_CAT_ID>23546</NORAD_CAT_ID><ELEMENT_SET_NO>999</ELEMENT_SET_NO><REV_AT_EPOCH>59636</REV_AT_EPOCH><BSTAR>.10948E-2</BSTAR><MEAN_MOTION_DOT>.10101E-3</MEAN_MOTION_DOT><MEAN_MOTION_DDOT>0</MEAN_MOTION_DDOT></tleParameters></data></segment></body></omm>
<omm id="CCSDS_OMM_VERS" version="2.0">
<header><CREATION_DATE/><ORIGINATOR/></header><body><segment><metadata><OBJECT_NAME>ORBCOMM FM08</OBJECT_NAME><OBJECT_ID>1997-084A</OBJECT_ID><CENTER_NAME>EARTH</CENTER_NAME><REF_FRAME>TEME</REF_FRAME><TIME_SYSTEM>UTC</TIME_SYSTEM><MEAN_ELEMENT_THEORY>SGP4</MEAN_ELEMENT_THEORY></metadata><data><meanElements><EPOCH>2025-03-03T07:20:06.449280</EPOCH><MEAN_MOTION>14.45211190</MEAN_MOTION><ECCENTRICITY>.0004107</ECCENTRICITY><INCLINATION>45.0127</INCLINATION><RA_OF_ASC_NODE>155.9515</RA_OF_ASC_NODE><ARG_OF_PERICENTER>80.2079</ARG_OF_PERICENTER><MEAN_ANOMALY>279.9236</MEAN_ANOMALY></meanElements><tleParameters><EPHEMERIS_TYPE>0</EPHEMERIS_TYPE><CLASSIFICATION_TYPE>U</CLASSIFICATION_TYPE><NORAD_CAT_ID>25112</NORAD_CAT_ID><ELEMENT_SET_NO>999</ELEMENT_SET_NO><REV_AT_EPOCH>42622</REV_AT_EPOCH><BSTAR>.85741E-3</BSTAR><MEAN_MOTION_DOT>.289E-4</MEAN_MOTION_DOT><MEAN_MOTION_DDOT>0</MEAN_MOTION_DDOT></tleParameters></data></segment></body></omm>
<omm id="CCSDS_OMM_VERS" version="2.0">
<header><CREATION_DATE/><ORIGINATOR/></header><body><segment><metadata><OBJECT_NAME>ORBCOMM FM10</OBJECT_NAME><OBJECT_ID>1997-084B</OBJECT_ID><CENTER_NAME>EARTH</CENTER_NAME><REF_FRAME>TEME</REF_FRAME><TIME_SYSTEM>UTC</TIME_SYSTEM><MEAN_ELEMENT_THEORY>SGP4</MEAN_ELEMENT_THEORY></metadata><data><meanElements><EPOCH>2025-03-03T18:07:38.031456</EPOCH><MEAN_MOTION>14.45015392</MEAN_MOTION><ECCENTRICITY>.0002545</ECCENTRICITY><INCLINATION>45.0139</INCLINATION><RA_OF_ASC_NODE>155.9937</RA_OF_ASC_NODE><ARG_OF_PERICENTER>23.0292</ARG_OF_PERICENTER><MEAN_ANOMALY>337.0673</MEAN_ANOMALY></meanElements><tleParameters><EPHEMERIS_TYPE>0</EPHEMERIS_TYPE><CLASSIFICATION_TYPE>U</CLASSIFICATION_TYPE><NORAD_CAT_ID>25113</NORAD_CAT_ID><ELEMENT_SET_NO>999</ELEMENT_SET_NO><REV_AT_EPOCH>42627</REV_AT_EPOCH><BSTAR>.88481E-3</BSTAR><MEAN_MOTION_DOT>.2975E-4</MEAN_MOTION_DOT><MEAN_MOTION_DDOT>0</MEAN_MOTION_DDOT></tleParameters></data></segment></body></omm>
<omm id="CCSDS_OMM_VERS" version="2.0">
<header><CREATION_DATE/><ORIGINATOR/></header><body><segment><metadata><OBJECT_NAME>ORBCOMM FM11</OBJECT_NAME><OBJECT_ID>1997-084C</OBJECT_ID><CENTER_NAME>EARTH</CENTER_NAME><REF_FRAME>TEME</REF_FRAME><TIME_SYSTEM>UTC</TIME_SYSTEM><MEAN_ELEMENT_THEORY>SGP4</MEAN_ELEMENT_THEORY></metadata><data><meanElements><EPOCH>2025-03-03T07:50:46.699296</EPOCH><MEAN_MOTION>14.44770086</MEAN_MOTION><ECCENTRICITY>.0003337</ECCENTRICITY><INCLINATION>45.0124</INCLINATION><RA_OF_ASC_NODE>158.4906</RA_OF_ASC_NODE><ARG_OF_PERICENTER>28.7287</ARG_OF_PERICENTER><MEAN_ANOMALY>331.3748</MEAN_ANOMALY></meanElements><tleParameters><EPHEMERIS_TYPE>0</EPHEMERIS_TYPE><CLASSIFICATION_TYPE>U</CLASSIFICATION_TYPE><NORAD_CAT_ID>25114</NORAD_CAT_ID><ELEMENT_SET_NO>999</ELEMENT_SET_NO><REV_AT_EPOCH>42616</REV_AT_EPOCH><BSTAR>.75732E-3</BSTAR><MEAN_MOTION_DOT>.2511E-4</MEAN_MOTION_DOT><MEAN_MOTION_DDOT>0</MEAN_MOTION_DDOT></tleParameters></data></segment></body></omm>
<omm id="CCSDS_OMM_VERS" version="2.0">
<header><CREATION_DATE/><ORIGINATOR/></header><body><segment><metadata><OBJECT_NAME>ORBCOMM FM12</OBJECT_NAME><OBJECT_ID>1997-084D</OBJECT_ID><CENTER_NAME>EARTH</CENTER_NAME><REF_FRAME>TEME</REF_FRAME><TIME_SYSTEM>UTC</TIME_SYSTEM><MEAN_ELEMENT_THEORY>SGP4</MEAN_ELEMENT_THEORY></metadata><data><meanElements><EPOCH>2025-03-02T16:02:54.094560</EPOCH><MEAN_MOTION>14.44782947</MEAN_MOTION><ECCENTRICITY>.0002437</ECCENTRICITY><INCLINATION>45.0133</INCLINATION><RA_OF_ASC_NODE>161.4070</RA_OF_ASC_NODE><ARG_OF_PERICENTER>16.1727</ARG_OF_PERICENTER><MEAN_ANOMALY>343.9202</MEAN_ANOMALY></meanElements><tleParameters><EPHEMERIS_TYPE>0</EPHEMERIS_TYPE><CLASSIFICATION_TYPE>U</CLASSIFICATION_TYPE><NORAD_CAT_ID>25115</NORAD_CAT_ID><ELEMENT_SET_NO>999</ELEMENT_SET_NO><REV_AT_EPOCH>42586</REV_AT_EPOCH><BSTAR>.87375E-3</BSTAR><MEAN_MOTION_DOT>.2921E-4</MEAN_MOTION_DOT><MEAN_MOTION_DDOT>0</MEAN_MOTION_DDOT></tleParameters></data></segment></body></omm>
<omm id="CCSDS_OMM_VERS" version="2.0">
<header><CREATION_DATE/><ORIGINATOR/></header><body><segment><metadata><OBJECT_NAME>ORBCOMM FM09</OBJECT_NAME><OBJECT_ID>1997-084E</OBJECT_ID><CENTER_NAME>EARTH</CENTER_NAME><REF_FRAME>TEME</REF_FRAME><TIME_SYSTEM>UTC</TIME_SYSTEM><MEAN_ELEMENT_THEORY>SGP4</MEAN_ELEMENT_THEORY></metadata><data><meanElements><EPOCH>2025-03-02T16:36:59.036544</EPOCH><MEAN_MOTION>14.44679078</MEAN_MOTION><ECCENTRICITY>.000406</ECCENTRICITY><INCLINATION>45.0137</INCLINATION><RA_OF_ASC_NODE>162.1265</RA_OF_ASC_NODE><ARG_OF_PERICENTER>4.6905</ARG_OF_PERICENTER><MEAN_ANOMALY>355.3983</MEAN_ANOMALY></meanElements><tleParameters><EPHEMERIS_TYPE>0</EPHEMERIS_TYPE><CLASSIFICATION_TYPE>U</CLASSIFICATION_TYPE><NORAD_CAT_ID>25116</NORAD_CAT_ID><ELEMENT_SET_NO>999</ELEMENT_SET_NO><REV_AT_EPOCH>42607</REV_AT_EPOCH><BSTAR>.85066E-3</BSTAR><MEAN_MOTION_DOT>.2834E-4</MEAN_MOTION_DOT><MEAN_MOTION_DDOT>0</MEAN_MOTION_DDOT></tleParameters></data></segment></body></omm>

</ndm>
